#aV2022  8 30  0  0  0.00000000     288 DD+AD WGS84 FIT  NGA
## 2225 172800.00000000   300.00000000 59821 0.0000000000000
+   32     1  2  3  4  5  6  7  8  9 10 11 12 13 14 15 16 17
+         18 19 20 21 22 23 24 25 26 27 28 29 30 31 32  0  0
+          0  0  0  0  0  0  0  0  0  0  0  0  0  0  0  0  0
+          0  0  0  0  0  0  0  0  0  0  0  0  0  0  0  0  0
+          0  0  0  0  0  0  0  0  0  0  0  0  0  0  0  0  0
++         2  2  2  2  2  2  2  2  2  2  2  2  2  2  2  2  2
++         2  2  2  2  2  2  2  2  2  2  2  2  2  2  2  0  0
++         0  0  0  0  0  0  0  0  0  0  0  0  0  0  0  0  0
++         0  0  0  0  0  0  0  0  0  0  0  0  0  0  0  0  0
++         0  0  0  0  0  0  0  0  0  0  0  0  0  0  0  0  0
%c cc cc ccc ccc cccc cccc cccc cccc ccccc ccccc ccccc ccccc
%c cc cc ccc ccc cccc cccc cccc cccc ccccc ccccc ccccc ccccc
%f  0.0000000  0.000000000  0.00000000000  0.000000000000000
%f  0.0000000  0.000000000  0.00000000000  0.000000000000000
%i    0    0    0    0      0      0      0      0         0
%i    0    0    0    0      0      0      0      0         0
/*      NGA, ST. LOUIS,MO.                                  
/*   EPHEMERIS COMPUTED FROM 2 DAYS OF DATA                 
/*   EPOCHA v8 SMOOTHER                                     
/*   G2139 IERS2010 SATIGS SATAPC                           
*  2022  8 30  4 15  0.00000000
P  1  -1371.357517 -14862.473828 -22253.179035    292.942641                    
V  1  26464.994901  -7338.229672   3645.405259     -0.067825                    
P  2 -10919.545581  17379.897008  17603.231016   -647.672882                    
V  2 -20038.951370   6487.223457 -19387.230047      0.011367                    
P  3  -8545.122124 -21000.147103 -14047.076674   -341.893286                    
V  3  14011.954338  10717.689062 -24659.830709     -0.073384                    
P  4    205.347761 -24952.214390   8967.451743   -126.095686                    
V  4   5464.788443 -10346.302283 -29019.786058      0.053219                    
P  5  -3276.678737  16135.909483  20636.837849    -94.753267                    
V  5 -20851.516201 -16598.773347   9716.414972     -0.014170                    
P  6 -25743.475982   6415.587360  -1881.743051    443.323926                    
V  6   1806.720661  -2517.185882 -32174.701189      0.133439                    
P  7 -17596.754143  -8561.898316  18591.020423    311.367363                    
V  7  21284.102372  -7746.735999  16474.619013     -0.025819                    
P  8   5375.860302 -25810.041031     42.592008    -82.509618                    
V  8   2988.186332    723.843699  32030.186245     -0.015333                    
P  9  -8834.340671 -17904.705570  17425.336103   -302.334466                    
V  9   6362.090246 -21451.682202 -18772.720839      0.045013                    
P 10  21869.587806   8874.983978 -12332.854169     -1.027352                    
V 10  10332.461358  12034.279382  26364.001399     -0.016741                    
P 11 -21548.749388  12197.795376   9560.209515    -13.305424                    
V 11 -12389.873671    520.786221 -28615.974176     -0.019723                    
P 12   5715.557905  21362.661378 -15053.166203   -270.237262                    
V 12 -13943.943724 -12421.003954 -23231.686883     -0.059896                    
P 13 -13218.069435  21876.288236   6696.761896    377.641573                    
V 13    672.715153  -9109.018311  30521.470382      0.073786                    
P 14 -21737.871845 -10625.464512 -11070.787801   -106.783766                    
V 14  -8069.901313 -11793.038223  27037.919379      0.021068                    
P 15  -2150.819836  26304.854717   -500.923777    -33.186830                    
V 15  -4013.107804   -246.509481  31273.414973      0.030808                    
P 16  10412.116276 -10736.378411  21660.619877   -522.453493                    
V 16  19033.233624  20757.883435   1569.847236     -0.013678                    
P 17 -14388.739589  -2903.412483 -21702.528083    653.831677                    
V 17   8042.037711 -27403.571779  -1579.007640      0.039787                    
P 18  17926.760127   7704.537949  18073.422306     65.525381                    
V 18 -21645.672914   7547.888731  18113.895476     -0.124304                    
P 19 -16547.718415   7356.526222 -19586.357418    203.887624                    
V 19   6907.162092 -23411.973242 -15054.804848      0.050422                    
P 20 -15086.722303   7686.106237  20416.804140    490.639813                    
V 20 -20983.657850 -15444.005467  -9921.433073     -0.031296                    
P 21   8026.558650 -16777.160467 -18052.075291    160.023104                    
V 21  23498.023028  -7125.863471  17222.502944     -0.003907                    
P 22  16267.822793 -10773.035022 -17522.057653    318.728542                    
V 22  -5308.296597  22606.501811 -18562.568548      0.067229                    
P 23  21162.084230  15880.018207  -3019.551281    -38.409682                    
V 23   1260.818562   4321.329222  31565.792335     -0.010505                    
P 24  -2159.129937  17103.516797 -20421.888532    152.560714                    
V 24 -24115.980824   8194.469236   9980.903529     -0.122557                    
P 25  16642.568449  20291.906961  -5233.257904    366.439657                    
V 25  -6383.970845  -2269.538995 -30534.504407      0.041779                    
P 26  17731.071550  -3868.096389  19406.137821    226.159263                    
V 26  18247.053720  16881.015108 -12929.679754      0.018059                    
P 27  12511.809397 -20191.265049  11248.978601    216.192553                    
V 27   -877.318322  14919.750748  27616.869019     -0.029255                    
P 28 -19077.788947  -3180.387295 -17587.990566    340.299950                    
V 28 -14233.596277 -18698.546572  18529.008510     -0.008305                    
P 29   6468.152226  18775.582077  17549.281376   -547.184046                    
V 29  -7991.754513  20932.222036 -19475.926376     -0.032336                    
P 30 -24573.734413   -886.200245  10452.336560   -536.507657                    
V 30  11764.187727  -6467.120784  27097.441671     -0.004184                    
P 31  25855.909687  -7102.665550   -215.030845   -191.499083                    
V 31    604.906890   2544.159511 -31320.352499     -0.013816                    
P 32  15498.976933   -551.000082 -21393.677308   -218.244090                    
V 32  -5465.372123  27004.018956  -4811.462561     -0.109750                    
EOF
